[Satellite]
VERSION=1.1
NAME=STARLINK-1343
NICKNAME=STARLINK-1343
TLE1=1 45584U 20025BF  20143.41667824  .00014878  00000-0  16804-3 0  9993
TLE2=2 45584  53.0001 253.1639 0001210  90.5179 130.2412 15.62749986  5365
STATUS=0
